1 45194U 20012S   23306.43215638 -.00000431  00000-0 -10038-4 0  9990
2 45194  53.0548 299.4855 0001269  89.7127 270.4008 15.06393148205372
1 45194U 20012S   23306.43215638 -.00000431  00000-0 -10038-4 0  9990
2 45194  53.0548 299.4855 0001269  89.7127 270.4008 15.06393148204540
1 45194U 20012S   23306.69754601  .00000665  00000-0  63532-4 0  9990
2 45194  53.0546 298.2945 0001411  92.3327 267.7823 15.06393316205414
1 45194U 20012S   23307.36101354  .00004028  00000-0  28910-3 0  9993
2 45194  53.0549 295.3158 0001338  90.3563 269.7579 15.06402347205515
1 45194U 20012S   23307.69274452  .00005386  00000-0  38007-3 0  9995
2 45194  53.0550 293.8269 0001281  95.4197 264.6938 15.06409310205564
1 45194U 20012S   23307.69274452  .00005386  00000-0  38007-3 0  9995
2 45194  53.0550 293.8269 0001281  95.4197 264.6938 15.06409310204732
1 45194U 20012S   23308.22351180  .00006900  00000-0  48137-3 0  9997
2 45194  53.0554 291.4439 0001353  88.4192 271.6952 15.06420153205649
1 45194U 20012S   23308.68794010  .00003576  00000-0  25877-3 0  9992
2 45194  53.0545 289.3592 0001377  88.7791 271.3356 15.06410997205717
1 45194U 20012S   23308.68794010  .00003576  00000-0  25877-3 0  9992
2 45194  53.0545 289.3592 0001377  88.7791 271.3356 15.06410997204884
1 45194U 20012S   23309.21871585  .00000682  00000-0  64687-4 0  9993
2 45194  53.0551 286.9764 0001437  98.6387 261.4765 15.06402820205794
1 45194U 20012S   23309.21871585  .00000682  00000-0  64687-4 0  9993
2 45194  53.0551 286.9764 0001437  98.6387 261.4765 15.06402820204962
1 45194U 20012S   23310.14756213  .00033064  00000-0  22254-2 0  9999
2 45194  53.0551 282.8069 0001546 102.2130 257.9032 15.06447021205100
1 45194U 20012S   23310.34659557  .00029741  00000-0  20040-2 0  9992
2 45194  53.0554 281.9143 0001526 100.0947 260.0214 15.06457731205966
1 45194U 20012S   23310.61199461 -.00001893  00000-0 -10825-3 0  9996
2 45194  53.0563 280.7222 0001957  81.5850 278.5360 15.06394931206009
1 45194U 20012S   23310.61199461 -.00001893  00000-0 -10825-3 0  9996
2 45194  53.0563 280.7222 0001957  81.5850 278.5360 15.06394931205176
1 45194U 20012S   23311.20914491  .00011205  00000-0  77146-3 0  9995
2 45194  53.0549 278.0425 0001213  78.8288 281.2837 15.06326960205261
1 45194U 20012S   23311.60723481  .00025295  00000-0  17129-2 0  9994
2 45194  53.0557 276.2547 0000879  97.3057 262.8032 15.06358224206151
1 45194U 20012S   23311.60723481  .00025295  00000-0  17129-2 0  9994
2 45194  53.0557 276.2547 0000879  97.3057 262.8032 15.06358224205329
1 45194U 20012S   23312.07166272  .00023120  00000-0  15655-2 0  9992
2 45194  53.0552 274.1706 0001353  76.7437 283.3703 15.06409724205391
1 45194U 20012S   23312.20435381  .00018536  00000-0  12594-2 0  9991
2 45194  53.0549 273.5753 0001316  83.1402 276.9736 15.06418188206248
1 45194U 20012S   23313.13320334  .00000163  00000-0  29798-4 0  9998
2 45194  53.0544 269.4042 0001415  80.7138 279.4011 15.06418280205557
1 45194U 20012S   23313.19955120  .00008594  00000-0  59499-3 0  9997
2 45194  53.0541 269.1072 0001321  96.5192 263.5947 15.06410891206390
1 45194U 20012S   23314.12838735  .00014661  00000-0  99999-3 0  9994
2 45194  53.0544 264.9362 0001440  90.3692 269.7462 15.06441219206531
1 45194U 20012S   23314.12838735  .00014661  00000-0  99999-3 0  9994
2 45194  53.0544 264.9362 0001440  90.3692 269.7462 15.06441219205709
1 45194U 20012S   23315.12358909  .00003283  00000-0  23917-3 0  9990
2 45194  53.0550 260.4649 0002172 143.9724 216.1412 15.06404396205851
1 45194U 20012S   23315.58802633  .00012706  00000-0  87045-3 0  9990
2 45194  53.0552 258.3829 0001258  75.8911 284.2218 15.06395726206750
1 45194U 20012S   23315.58802633  .00012706  00000-0  87045-3 0  9990
2 45194  53.0552 258.3829 0001258  75.8911 284.2218 15.06395726205928
1 45194U 20012S   23316.05245404  .00010165  00000-0  70025-3 0  9997
2 45194  53.0553 256.2975 0001483  80.4662 279.6495 15.06403096206828
1 45194U 20012S   23316.84861881  .00006076  00000-0  42646-3 0  9991
2 45194  53.0567 252.7249 0001899  89.7536 270.3671 15.06401594206949
1 45194U 20012S   23317.11400639  .00003493  00000-0  25327-3 0  9999
2 45194  53.0552 251.5308 0001372  93.6233 266.4913 15.06398564206150
1 45194U 20012S   23317.51208422  .00006122  00000-0  42942-3 0  9993
2 45194  53.0552 249.7456 0001457  90.7504 269.3652 15.06409822207047
1 45194U 20012S   23317.51208422  .00006122  00000-0  42942-3 0  9993
2 45194  53.0552 249.7456 0001457  90.7504 269.3652 15.06409822206215
1 45194U 20012S   23317.84381450  .00009272  00000-0  64030-3 0  9993
2 45194  53.0553 248.2548 0001300  87.0530 273.0608 15.06415079207098
1 45194U 20012S   23318.10919612  .00014453  00000-0  98638-3 0  9998
2 45194  53.0557 247.0657 0001346  82.9488 277.1654 15.06431547206303
1 45194U 20012S   23318.50727495  .00001584  00000-0  12516-3 0  9990
2 45194  53.0552 245.2780 0001464  78.2518 281.8635 15.06417806207199
1 45194U 20012S   23318.50727495  .00001584  00000-0  12516-3 0  9990
2 45194  53.0552 245.2780 0001464  78.2518 281.8635 15.06417806206367
1 45194U 20012S   23318.90536506 -.00007534  00000-0 -48756-3 0  9993
2 45194  53.0551 243.4919 0001640  74.4982 285.6188 15.06387453207257
1 45194U 20012S   23319.10440599 -.00002615  00000-0 -15679-3 0  9995
2 45194  53.0550 242.5989 0001450  76.7192 283.3958 15.06384892206455
1 45194U 20012S   23319.17075389 -.00000006  00000-0  18505-4 0  9996
2 45194  53.0550 242.3010 0001462  76.6618 283.4534 15.06384949207290
1 45194U 20012S   23320.09961707  .00016111  00000-0  10979-2 0  9995
2 45194  53.0547 238.1316 0001489  76.1226 283.9928 15.06403986206606
1 45194U 20012S   23320.16596350  .00015066  00000-0  10280-2 0  9994
2 45194  53.0547 237.8337 0001500  75.8395 284.2760 15.06405143207440
1 45194U 20012S   23321.02847638  .00007038  00000-0  49091-3 0  9991
2 45194  53.0567 233.9521 0001665  83.9352 276.1826 15.06401687206743
1 45194U 20012S   23321.49290464  .00007408  00000-0  51572-3 0  9999
2 45194  53.0546 231.8739 0001439 105.5290 254.5858 15.06398983207648
1 45194U 20012S   23321.49290464  .00007408  00000-0  51572-3 0  9999
2 45194  53.0546 231.8739 0001439 105.5290 254.5858 15.06398983206816
1 45194U 20012S   23322.15636867  .00009220  00000-0  63681-3 0  9992
2 45194  53.0545 228.8982 0001555  86.4802 273.6365 15.06414836207740
1 45194U 20012S   23323.15157621 -.00002202  00000-0 -12897-3 0  9997
2 45194  53.0557 224.4278 0001585  88.9257 271.1914 15.06392141207069
1 45194U 20012S   23323.41696166  .00001953  00000-0  14998-3 0  9992
2 45194  53.0543 223.2398 0001469  88.6516 271.4642 15.06402271207933
1 45194U 20012S   23323.41696166  .00001953  00000-0  14998-3 0  9992
2 45194  53.0543 223.2398 0001469  88.6516 271.4642 15.06402271207102
1 45194U 20012S   23323.88138624  .00002617  00000-0  19448-3 0  9996
2 45194  53.0551 221.1544 0001480  89.7029 270.4130 15.06406740208001
1 45194U 20012S   23324.41216187  .00001784  00000-0  13863-3 0  9996
2 45194  53.0537 218.7723 0001451  90.4671 269.6484 15.06401380208081
1 45194U 20012S   23324.67755120  .00000553  00000-0  56000-4 0  9993
2 45194  53.0536 217.5814 0001484  91.8141 268.3018 15.06396825207299
1 45194U 20012S   23324.94293943  .00000636  00000-0  61575-4 0  9998
2 45194  53.0542 216.3901 0001483  91.4934 268.6225 15.06396256208163
1 45194U 20012S   23325.00928574  .00000703  00000-0  66114-4 0  9990
2 45194  53.0542 216.0922 0001485  91.4589 268.6570 15.06397078208178
1 45194U 20012S   23325.87178489  .00002987  00000-0  21923-3 0  9991
2 45194  53.0542 212.2210 0001508  95.3735 264.7426 15.06413647208301
1 45194U 20012S   23326.07082318  .00003923  00000-0  28202-3 0  9997
2 45194  53.0541 211.3274 0001506  93.9633 266.1528 15.06416154208337
1 45194U 20012S   23326.07082318  .00003923  00000-0  28202-3 0  9997
2 45194  53.0541 211.3274 0001506  93.9633 266.1528 15.06416154207505
1 45194U 20012S   23326.86699563  .00002356  00000-0  17704-3 0  9994
2 45194  53.0542 207.7529 0001745  90.1269 269.9919 15.06401168208456
1 45194U 20012S   23326.93333987  .00001771  00000-0  13776-3 0  9992
2 45194  53.0541 207.4546 0001477 106.6570 253.4581 15.06400995208462
1 45194U 20012S   23326.93333987  .00001771  00000-0  13776-3 0  9992
2 45194  53.0541 207.4546 0001477 106.6570 253.4581 15.06400995207630
1 45194U 20012S   23327.92854010  .00005572  00000-0  39259-3 0  9994
2 45194  53.0544 202.9871 0001564  92.6214 267.4954 15.06408940208616
1 45194U 20012S   23328.06123238  .00006434  00000-0  45031-3 0  9994
2 45194  53.0543 202.3906 0001551  98.7827 261.3338 15.06410882208630
1 45194U 20012S   23328.06123238  .00006434  00000-0  45031-3 0  9994
2 45194  53.0543 202.3906 0001551  98.7827 261.3338 15.06410882207808
1 45194U 20012S   23328.79105242  .00001605  00000-0  12664-3 0  9990
2 45194  53.0528 199.1060 0002275 132.5817 227.5364 15.06395965207914
1 45194U 20012S   23328.92374987 -.00000692  00000-0 -27590-4 0  9991
2 45194  53.0541 198.5193 0001482  98.4286 261.6871 15.06391016208767
1 45194U 20012S   23329.05644523  .00001778  00000-0  13825-3 0  9991
2 45194  53.0546 197.9233 0001332  92.8407 267.2735 15.06392364208787
1 45194U 20012S   23329.91895489  .00014963  00000-0  10209-2 0  9997
2 45194  53.0541 194.0511 0001333  89.5972 270.5169 15.06413046208914
1 45194U 20012S   23329.91895489  .00014963  00000-0  10209-2 0  9997
2 45194  53.0541 194.0511 0001333  89.5972 270.5169 15.06413046208082
1 45194U 20012S   23330.78146642 -.00000657  00000-0 -25238-4 0  9991
2 45194  53.0540 190.1777 0001223 106.0962 254.0161 15.06399958208213
1 45194U 20012S   23330.84781516  .00000044  00000-0  21851-4 0  9998
2 45194  53.0537 189.8800 0001304 102.6314 257.4821 15.06395868209053
1 45194U 20012S   23331.90936781  .00000997  00000-0  85806-4 0  9999
2 45194  53.0532 185.1168 0001319  87.8131 272.3009 15.06396734209216
1 45194U 20012S   23331.97571376  .00001162  00000-0  96910-4 0  9994
2 45194  53.0533 184.8183 0001330  93.2161 266.8980 15.06397837209229
